NORAD_CAT_ID,OBJECT_NAME,OBJECT_TYPE,EPOCH,MEAN_MOTION,ECCENTRICITY,INCLINATION,RA_OF_ASC_NODE,ARG_OF_PERICENTER,MEAN_ANOMALY,BSTAR,MEAN_MOTION_DOT,MEAN_MOTION_DDOT,TLE_LINE0,TLE_LINE1,TLE_LINE2,SEMIMAJOR_AXIS,PERIOD,APOGEE,PERIGEE,DECAYED
54789.0,STARLINK-5446,PAYLOAD,2023-02-10 11:12:29,15.7321098,0.0003455,53.2171,32.5035,11.0634,349.0461,5.4237e-05,7e-05,0.0,0 STARLINK-5446,1 54789U 22175AH  23041.46701355  .00007000  00000-0  54237-4 0  9993,2 54789  53.2171  32.5035 0003455  11.0634 349.0461 15.73210980  8375,6727.864,91.533,352.053,347.404,0.0
54789.0,STARLINK-5446,PAYLOAD,2023-02-11 02:27:18,15.73199137,0.0003612,53.2171,29.3588,14.8578,345.2548,4.6464e-05,5.903e-05,0.0,0 STARLINK-5446,1 54789U 22175AH  23042.10230201  .00005903  00000-0  46464-4 0  9995,2 54789  53.2171  29.3588 0003612  14.8578 345.2548 15.73199137  8470,6727.898,91.533,352.193,347.333,0.0
54789.0,STARLINK-5446,PAYLOAD,2023-02-11 10:04:41,15.73241521,0.0003453,53.2165,27.7866,17.0095,343.1041,0.0001056,0.00014252,0.0,0 STARLINK-5446,1 54789U 22175AH  23042.41992150  .00014252  00000-0  10560-3 0  9991,2 54789  53.2165  27.7866 0003453  17.0095 343.1041 15.73241521  8522,6727.777,91.531,351.965,347.319,0.0
54789.0,STARLINK-5446,PAYLOAD,2023-02-12 02:50:58,15.73214047,0.0004571,53.2166,24.3291,357.6228,2.4769,1.3676e-05,1.296e-05,0.0,0 STARLINK-5446,1 54789U 22175AH  23043.11873003  .00001296  00000-0  13676-4 0  9990,2 54789  53.2166  24.3291 0004571 357.6228   2.4769 15.73214047  8638,6727.855,91.532,352.795,346.645,0.0
54789.0,STARLINK-5446,PAYLOAD,2023-02-12 10:28:22,15.73206913,0.0003191,53.2165,22.7572,20.0563,340.0582,-2.3325e-05,-3.897e-05,0.0,0 STARLINK-5446,1 54789U 22175AH  23043.43637026 -.00003897  00000-0 -23325-4 0  9991,2 54789  53.2165  22.7572 0003191  20.0563 340.0582 15.73206913 10855,6727.875,91.533,351.887,347.594,0.0
54789.0,STARLINK-5446,PAYLOAD,2023-02-12 22:40:14,15.73183138,0.0003251,53.2167,20.2429,24.8492,335.2684,-5.0193e-05,-7.658e-05,0.0,0 STARLINK-5446,1 54789U 22175AH  23043.94460782 -.00007658  00000-0 -50193-4 0  9992,2 54789  53.2167  20.2429 0003251  24.8492 335.2684 15.73183138  8760,6727.943,91.534,351.996,347.621,0.0
54789.0,STARLINK-5446,PAYLOAD,2023-02-13 09:20:36,15.73189353,0.0002817,53.2163,18.0414,14.9524,345.1579,-3.3031e-05,-5.254e-05,0.0,0 STARLINK-5446,1 54789U 22175AH  23044.38930632 -.00005254  00000-0 -33031-4 0  9999,2 54789  53.2163  18.0414 0002817  14.9524 345.1579 15.73189353 11007,6727.926,91.534,351.686,347.895,0.0
54789.0,STARLINK-5446,PAYLOAD,2023-02-13 15:26:31,15.73199461,0.0002998,53.2168,16.7843,13.8099,346.3002,7.7822e-06,4.69e-06,0.0,0 STARLINK-5446,1 54789U 22175AH  23044.64341764  .00000469  00000-0  77822-5 0  9998,2 54789  53.2168  16.7843 0002998  13.8099 346.3002 15.73199461  8874,6727.897,91.533,351.779,347.745,0.0
54789.0,STARLINK-5446,PAYLOAD,2023-02-14 02:06:54,15.73184037,0.0003357,53.2163,14.584,9.916,350.1926,1.8313e-05,1.946e-05,0.0,0 STARLINK-5446,1 54789U 22175AH  23045.08812736  .00001946  00000-0  18313-4 0  9999,2 54789  53.2163  14.5840 0003357   9.9160 350.1926 15.73184037  8946,6727.941,91.534,352.064,347.547,0.0
54789.0,STARLINK-5446,PAYLOAD,2023-02-14 09:44:18,15.73186264,0.0002789,53.2165,13.0122,13.663,346.4465,8.0035e-06,5e-06,0.0,0 STARLINK-5446,1 54789U 22175AH  23045.40576801  .00000500  00000-0  80035-5 0  9991,2 54789  53.2165  13.0122 0002789  13.6630 346.4465 15.73186264 11165,6727.934,91.534,351.676,347.923,0.0
54789.0,STARLINK-5446,PAYLOAD,2023-02-15 04:02:04,15.73207659,0.0002933,53.2158,9.2397,12.4232,347.686,6.7326e-05,8.841e-05,0.0,0 STARLINK-5446,1 54789U 22175AH  23046.16810795  .00008841  00000-0  67326-4 0  9991,2 54789  53.2158   9.2397 0002933  12.4232 347.6860 15.73207659  9110,6727.873,91.533,351.712,347.765,0.0
54789.0,STARLINK-5446,PAYLOAD,2023-02-15 08:36:30,15.73210594,0.0003227,53.2159,8.2967,16.6772,343.4354,5.9315e-05,7.715e-05,0.0,0 STARLINK-5446,1 54789U 22175AH  23046.35868983  .00007715  00000-0  59315-4 0  9992,2 54789  53.2159   8.2967 0003227  16.6772 343.4354 15.73210594 11314,6727.865,91.533,351.901,347.559,0.0
54789.0,STARLINK-5446,PAYLOAD,2023-02-15 14:42:25,15.73225568,0.0002672,53.2159,7.0388,9.7225,350.3846,7.7722e-05,0.00010312,0.0,0 STARLINK-5446,1 54789U 22175AH  23046.61279240  .00010312  00000-0  77722-4 0  9992,2 54789  53.2159   7.0388 0002672   9.7225 350.3846 15.73225568  9189,6727.822,91.532,351.485,347.89,0.0
54789.0,STARLINK-5446,PAYLOAD,2023-02-15 20:48:20,15.73237217,0.0003099,53.2156,5.7816,25.4898,334.6274,8.1483e-05,0.00010848,0.0,0 STARLINK-5446,1 54789U 22175AH  23046.86689958  .00010848  00000-0  81483-4 0  9993,2 54789  53.2156   5.7816 0003099  25.4898 334.6274 15.73237217 11392,6727.789,91.531,351.739,347.569,0.0
54789.0,STARLINK-5446,PAYLOAD,2023-02-16 09:00:09,15.73248884,0.0003066,53.2157,3.267,15.2148,344.8964,8.3339e-05,0.00011115,0.0,0 STARLINK-5446,1 54789U 22175AH  23047.37510814  .00011115  00000-0  83339-4 0  9994,2 54789  53.2157   3.2670 0003066  15.2148 344.8964 15.73248884  9302,6727.756,91.53,351.684,347.558,0.0
54789.0,STARLINK-5446,PAYLOAD,2023-02-17 07:52:18,15.73246361,0.0003034,53.2157,358.5513,23.2319,336.8838,2.0443e-08,-6.21e-06,0.0,0 STARLINK-5446,1 54789U 22175AH  23048.32799691 -.00000621  00000-0  20443-7 0  9993,2 54789  53.2157 358.5513 0003034  23.2319 336.8838 15.73246361  9453,6727.763,91.53,351.669,347.587,0.0
54789.0,STARLINK-5446,PAYLOAD,2023-02-17 13:58:15,15.73200569,0.0002888,53.2157,357.2936,26.7694,333.3475,-8.5709e-05,-0.00012636,0.0,0 STARLINK-5446,1 54789U 22175AH  23048.58212278 -.00012636  00000-0 -85709-4 0  9995,2 54789  53.2157 357.2936 0002888  26.7694 333.3475 15.73200569 11663,6727.894,91.533,351.702,347.816,0.0
54789.0,STARLINK-5446,PAYLOAD,2023-02-18 02:10:07,15.73144654,0.000262,53.2159,354.7788,24.9656,335.149,-0.00019639,-0.00028032,0.0,0 STARLINK-5446,1 54789U 22175AH  23049.09036572 -.00028032  00000-0 -19639-3 0  9998,2 54789  53.2159 354.7788 0002620  24.9656 335.1490 15.73144654  9570,6728.053,91.536,351.681,348.155,0.0
54789.0,STARLINK-5446,PAYLOAD,2023-02-18 12:50:31,15.73130667,0.0002765,53.2159,352.5772,15.9159,344.1947,-0.00013596,-0.00019606,0.0,0 STARLINK-5446,1 54789U 22175AH  23049.53509227 -.00019606  00000-0 -13596-3 0  9992,2 54789  53.2159 352.5772 0002765  15.9159 344.1947 15.73130667 11813,6728.093,91.537,351.818,348.098,0.0
54789.0,STARLINK-5446,PAYLOAD,2023-02-19 02:33:50,15.7317983,0.0002589,53.216,349.7489,21.4731,338.6397,-1.3788e-05,-2.555e-05,0.0,0 STARLINK-5446,1 54789U 22175AH  23050.10683940 -.00002555  00000-0 -13788-4 0  9991,2 54789  53.2160 349.7489 0002589  21.4731 338.6397 15.73179830  9730,6727.953,91.534,351.56,348.076,0.0
54789.0,STARLINK-5446,PAYLOAD,2023-02-19 07:08:17,15.7319725,0.0002884,53.2158,348.8066,22.9872,337.1277,2.3699e-05,2.705e-05,0.0,0 STARLINK-5446,1 54789U 22175AH  23050.29742015  .00002705  00000-0  23699-4 0  9997,2 54789  53.2158 348.8066 0002884  22.9872 337.1277 15.73197250  9768,6727.903,91.533,351.708,347.828,0.0
54789.0,STARLINK-5446,PAYLOAD,2023-02-19 13:14:11,15.73221363,0.0002801,53.216,347.5478,23.7726,336.3423,-8.6952e-08,-6.35e-06,0.0,0 STARLINK-5446,1 54789U 22175AH  23050.55152015 -.00000635  00000-0 -86952-7 0  9997,2 54789  53.2160 347.5478 0002801  23.7726 336.3423 15.73221363 11973,6727.834,91.532,351.584,347.815,0.0
54789.0,STARLINK-5446,PAYLOAD,2023-02-20 02:57:31,15.73214294,0.0002984,53.2161,344.7172,21.7394,338.3752,0.00011144,0.00015058,0.0,0 STARLINK-5446,1 54789U 22175AH  23051.12328562  .00015058  00000-0  11144-3 0  9993,2 54789  53.2161 344.7172 0002984  21.7394 338.3752 15.73214294  9895,6727.854,91.532,351.727,347.712,0.0
54789.0,STARLINK-5446,PAYLOAD,2023-02-20 07:31:58,15.73202126,0.0002836,53.2159,343.7749,25.7297,334.3864,6.0579e-05,7.889e-05,0.0,0 STARLINK-5446,1 54789U 22175AH  23051.31387643  .00007889  00000-0  60579-4 0  9999,2 54789  53.2159 343.7749 0002836  25.7297 334.3864 15.73202126  9928,6727.889,91.533,351.662,347.846,0.0
54789.0,STARLINK-5446,PAYLOAD,2023-02-20 12:06:25,15.73202073,0.0002545,53.2161,342.8323,30.305,329.8117,0.00011332,0.00015314,0.0,0 STARLINK-5446,1 54789U 22175AH  23051.50446285  .00015314  00000-0  11332-3 0  9992,2 54789  53.2161 342.8323 0002545  30.3050 329.8117 15.73202073 12122,6727.889,91.533,351.467,348.042,0.0
54789.0,STARLINK-5446,PAYLOAD,2023-02-21 01:49:43,15.73229209,0.0002096,53.2156,340.0028,32.5731,327.5418,4.4966e-05,5.702e-05,0.0,0 STARLINK-5446,1 54789U 22175AH  23052.07619912  .00005702  00000-0  44966-4 0  9994,2 54789  53.2156 340.0028 0002096  32.5731 327.5418 15.73229209 10047,6727.812,91.531,351.087,348.267,0.0
54789.0,STARLINK-5446,PAYLOAD,2023-02-21 06:24:10,15.73222373,0.000302,53.2155,339.0599,31.7211,328.3991,3.1787e-05,3.845e-05,0.0,0 STARLINK-5446,1 54789U 22175AH  23052.26678577  .00003845  00000-0  31787-4 0  9990,2 54789  53.2155 339.0599 0003020  31.7211 328.3991 15.73222373 10072,6727.831,91.532,351.728,347.665,0.0
54789.0,STARLINK-5446,PAYLOAD,2023-02-21 12:30:04,15.73224274,0.0002204,53.2155,337.8017,30.0915,330.0232,1.9916e-05,2.177e-05,0.0,0 STARLINK-5446,1 54789U 22175AH  23052.52089077  .00002177  00000-0  19916-4 0  9997,2 54789  53.2155 337.8017 0002204  30.0915 330.0232 15.73224274 12284,6727.826,91.532,351.174,348.208,0.0
54789.0,STARLINK-5446,PAYLOAD,2023-02-22 03:44:51,15.73248153,0.0002957,53.2153,334.6585,34.9071,325.2142,-4.1172e-05,-6.41e-05,0.0,0 STARLINK-5446,1 54789U 22175AH  23053.15614693 -.00006410  00000-0 -41172-4 0  9990,2 54789  53.2153 334.6585 0002957  34.9071 325.2142 15.73248153 10217,6727.758,91.53,351.612,347.633,0.0
54789.0,STARLINK-5446,PAYLOAD,2023-02-22 06:47:48,15.7324382,0.0002745,53.2152,334.0296,36.1185,324.002,-2.8192e-05,-4.585e-05,0.0,0 STARLINK-5446,1 54789U 22175AH  23053.28320176 -.00004585  00000-0 -28192-4 0  9992,2 54789  53.2152 334.0296 0002745  36.1185 324.0020 15.73243820 12405,6727.77,91.531,351.482,347.788,0.0
